[{"OBJECT_NAME":"STARLINK-31531","OBJECT_ID":"2024-068Y","EPOCH":"2026-03-09T03:12:42.929280","MEAN_MOTION":15.27570634,"ECCENTRICITY":0.00018776,"INCLINATION":43.0024,"RA_OF_ASC_NODE":342.5063,"ARG_OF_PERICENTER":271.296,"MEAN_ANOMALY":88.7677,"EPHEMERIS_TYPE":0,"CLASSIFICATION_TYPE":"U","NORAD_CAT_ID":59477,"ELEMENT_SET_NO":999,"REV_AT_EPOCH":10906,"BSTAR":-8.0016775e-5,"MEAN_MOTION_DOT":-2.463e-5,"MEAN_MOTION_DDOT":0},{"OBJECT_NAME":"OBJECT C","OBJECT_ID":"2024-092C","EPOCH":"2026-03-09T23:10:26.961312","MEAN_MOTION":15.27308901,"ECCENTRICITY":0.00097974,"INCLINATION":97.6475,"RA_OF_ASC_NODE":197.1606,"ARG_OF_PERICENTER":169.1353,"MEAN_ANOMALY":191.0098,"EPHEMERIS_TYPE":0,"CLASSIFICATION_TYPE":"U","NORAD_CAT_ID":59775,"ELEMENT_SET_NO":999,"REV_AT_EPOCH":10042,"BSTAR":0.00057925748,"MEAN_MOTION_DOT":0.00015454,"MEAN_MOTION_DDOT":0}]
